{
  "type": "FeatureCollection",
  "features": [
    {
      "type": "Feature",
      "properties": {
        "norad_id": 33860,
        "name": "IRIDIUM 33 DEB",
        "group": "iridium-33-debris",
        "lat": 51.30480593892254,
        "lon": -162.69637067442972,
        "alt_km": 668.6837641358961,
        "timestamp": "2025-12-24T22:42:22.418009+00:00",
        "meta_object_name": "IRIDIUM 33 DEB",
        "meta_object_id": "1997-051AD",
        "meta_epoch": "2025-12-24T02:44:42.302400",
        "meta_mean_motion": 14.67498252,
        "meta_eccentricity": 0.00060933,
        "meta_inclination": 86.3822,
        "meta_ra_of_asc_node": 22.2021,
        "meta_arg_of_pericenter": 313.142,
        "meta_mean_anomaly": 104.2436,
        "meta_ephemeris_type": 0,
        "meta_classification_type": "U",
        "meta_norad_cat_id": 33860,
        "meta_element_set_no": 999,
        "meta_rev_at_epoch": 88889,
        "meta_bstar": 0.0011400094,
        "meta_mean_motion_dot": 6.482e-05,
        "meta_mean_motion_ddot": 0,
        "tle_line1": "1 33860U 97051AD  25358.11437850  .00006482  00000+0  11400-2 0  9991",
        "tle_line2": "2 33860  86.3822  22.2021 0006093 313.1420 104.2436 14.67498252888891"
      },
      "geometry": {
        "type": "Point",
        "coordinates": [
          -162.69637067442972,
          51.30480593892254
        ]
      }
    },
    {
      "type": "Feature",
      "properties": {
        "norad_id": 33862,
        "name": "IRIDIUM 33 DEB",
        "group": "iridium-33-debris",
        "lat": -76.34843582182485,
        "lon": -132.86335464786382,
        "alt_km": 693.7190132800351,
        "timestamp": "2025-12-24T22:42:22.418021+00:00",
        "meta_object_name": "IRIDIUM 33 DEB",
        "meta_object_id": "1997-051AF",
        "meta_epoch": "2025-12-24T03:52:50.668320",
        "meta_mean_motion": 14.69651398,
        "meta_eccentricity": 0.00522331,
        "meta_inclination": 86.4077,
        "meta_ra_of_asc_node": 32.4924,
        "meta_arg_of_pericenter": 30.7851,
        "meta_mean_anomaly": 39.1118,
        "meta_ephemeris_type": 0,
        "meta_classification_type": "U",
        "meta_norad_cat_id": 33862,
        "meta_element_set_no": 999,
        "meta_rev_at_epoch": 88991,
        "meta_bstar": 0.0014716047,
        "meta_mean_motion_dot": 8.965e-05,
        "meta_mean_motion_ddot": 0,
        "tle_line1": "1 33862U 97051AF  25358.16169755  .00008965  00000+0  14716-2 0  9995",
        "tle_line2": "2 33862  86.4077  32.4924 0052233  30.7851  39.1118 14.69651398889919"
      },
      "geometry": {
        "type": "Point",
        "coordinates": [
          -132.86335464786382,
          -76.34843582182485
        ]
      }
    },
    {
      "type": "Feature",
      "properties": {
        "norad_id": 33866,
        "name": "IRIDIUM 33 DEB",
        "group": "iridium-33-debris",
        "lat": -1.027475520070641,
        "lon": -92.06204906309848,
        "alt_km": 766.3505721867814,
        "timestamp": "2025-12-24T22:42:22.418032+00:00",
        "meta_object_name": "IRIDIUM 33 DEB",
        "meta_object_id": "1997-051AK",
        "meta_epoch": "2025-12-24T05:18:24.789600",
        "meta_mean_motion": 14.25308834,
        "meta_eccentricity": 0.01151675,
        "meta_inclination": 86.2998,
        "meta_ra_of_asc_node": 88.1782,
        "meta_arg_of_pericenter": 125.0108,
        "meta_mean_anomaly": 297.1941,
        "meta_ephemeris_type": 0,
        "meta_classification_type": "U",
        "meta_norad_cat_id": 33866,
        "meta_element_set_no": 999,
        "meta_rev_at_epoch": 86974,
        "meta_bstar": 0.0005658111,
        "meta_mean_motion_dot": 1.447e-05,
        "meta_mean_motion_ddot": 0,
        "tle_line1": "1 33866U 97051AK  25358.22112025  .00001447  00000+0  56581-3 0  9999",
        "tle_line2": "2 33866  86.2998  88.1782 0115167 125.0108 297.1941 14.25308834869747"
      },
      "geometry": {
        "type": "Point",
        "coordinates": [
          -92.06204906309848,
          -1.027475520070641
        ]
      }
    },
    {
      "type": "Feature",
      "properties": {
        "norad_id": 33867,
        "name": "IRIDIUM 33 DEB",
        "group": "iridium-33-debris",
        "lat": 18.923129990009645,
        "lon": -15.147234526023142,
        "alt_km": 122.85064085366685,
        "timestamp": "2025-12-24T22:42:22.418044+00:00",
        "meta_object_name": "IRIDIUM 33 DEB",
        "meta_object_id": "1997-051AL",
        "meta_epoch": "2025-12-23T20:01:30.593568",
        "meta_mean_motion": 16.07905619,
        "meta_eccentricity": 0.00123823,
        "meta_inclination": 86.3716,
        "meta_ra_of_asc_node": 344.225,
        "meta_arg_of_pericenter": 111.097,
        "meta_mean_anomaly": 249.1645,
        "meta_ephemeris_type": 0,
        "meta_classification_type": "U",
        "meta_norad_cat_id": 33867,
        "meta_element_set_no": 999,
        "meta_rev_at_epoch": 89686,
        "meta_bstar": 0.010041813,
        "meta_mean_motion_dot": 0.05649041,
        "meta_mean_motion_ddot": 0.086118142,
        "tle_line1": "1 33867U 97051AL  25357.83438187  .05649041  86118-1  10042-1 0  9995",
        "tle_line2": "2 33867  86.3716 344.2250 0012382 111.0970 249.1645 16.07905619896867"
      },
      "geometry": {
        "type": "Point",
        "coordinates": [
          -15.147234526023142,
          18.923129990009645
        ]
      }
    },
    {
      "type": "Feature",
      "properties": {
        "norad_id": 33870,
        "name": "IRIDIUM 33 DEB",
        "group": "iridium-33-debris",
        "lat": 77.71890543013333,
        "lon": -143.91055841884977,
        "alt_km": 719.0855520491777,
        "timestamp": "2025-12-24T22:42:22.418056+00:00",
        "meta_object_name": "IRIDIUM 33 DEB",
        "meta_object_id": "1997-051AP",
        "meta_epoch": "2025-12-24T04:15:06.179904",
        "meta_mean_motion": 14.45905972,
        "meta_eccentricity": 0.00225815,
        "meta_inclination": 86.3733,
        "meta_ra_of_asc_node": 53.3579,
        "meta_arg_of_pericenter": 141.805,
        "meta_mean_anomaly": 280.099,
        "meta_ephemeris_type": 0,
        "meta_classification_type": "U",
        "meta_norad_cat_id": 33870,
        "meta_element_set_no": 999,
        "meta_rev_at_epoch": 88302,
        "meta_bstar": 0.00071294311,
        "meta_mean_motion_dot": 2.561e-05,
        "meta_mean_motion_ddot": 0,
        "tle_line1": "1 33870U 97051AP  25358.17715486  .00002561  00000+0  71294-3 0  9994",
        "tle_line2": "2 33870  86.3733  53.3579 0022581 141.8050 280.0990 14.45905972883027"
      },
      "geometry": {
        "type": "Point",
        "coordinates": [
          -143.91055841884977,
          77.71890543013333
        ]
      }
    },
    {
      "type": "Feature",
      "properties": {
        "norad_id": 33881,
        "name": "IRIDIUM 33 DEB",
        "group": "iridium-33-debris",
        "lat": 82.48442501592216,
        "lon": 130.06098307651777,
        "alt_km": 669.2032472153187,
        "timestamp": "2025-12-24T22:42:22.418067+00:00",
        "meta_object_name": "IRIDIUM 33 DEB",
        "meta_object_id": "1997-051BA",
        "meta_epoch": "2025-12-24T07:44:10.303872",
        "meta_mean_motion": 14.56777348,
        "meta_eccentricity": 0.00611531,
        "meta_inclination": 86.386,
        "meta_ra_of_asc_node": 101.7083,
        "meta_arg_of_pericenter": 137.2942,
        "meta_mean_anomaly": 277.57,
        "meta_ephemeris_type": 0,
        "meta_classification_type": "U",
        "meta_norad_cat_id": 33881,
        "meta_element_set_no": 999,
        "meta_rev_at_epoch": 87669,
        "meta_bstar": 0.0022945952,
        "meta_mean_motion_dot": 0.00010557,
        "meta_mean_motion_ddot": 0,
        "tle_line1": "1 33881U 97051BA  25358.32234148  .00010557  00000+0  22946-2 0  9997",
        "tle_line2": "2 33881  86.3860 101.7083 0061153 137.2942 277.5700 14.56777348876696"
      },
      "geometry": {
        "type": "Point",
        "coordinates": [
          130.06098307651777,
          82.48442501592216
        ]
      }
    },
    {
      "type": "Feature",
      "properties": {
        "norad_id": 33884,
        "name": "IRIDIUM 33 DEB",
        "group": "iridium-33-debris",
        "lat": -46.0320399398822,
        "lon": -171.91910970774092,
        "alt_km": 639.5363390706225,
        "timestamp": "2025-12-24T22:42:22.418078+00:00",
        "meta_object_name": "IRIDIUM 33 DEB",
        "meta_object_id": "1997-051BD",
        "meta_epoch": "2025-12-24T07:08:21.813216",
        "meta_mean_motion": 14.77652131,
        "meta_eccentricity": 0.00088851,
        "meta_inclination": 86.3696,
        "meta_ra_of_asc_node": 4.5998,
        "meta_arg_of_pericenter": 278.0535,
        "meta_mean_anomaly": 99.9801,
        "meta_ephemeris_type": 0,
        "meta_classification_type": "U",
        "meta_norad_cat_id": 33884,
        "meta_element_set_no": 999,
        "meta_rev_at_epoch": 89018,
        "meta_bstar": 0.0016922324,
        "meta_mean_motion_dot": 0.00012148,
        "meta_mean_motion_ddot": 0,
        "tle_line1": "1 33884U 97051BD  25358.29747469  .00012148  00000+0  16922-2 0  9996",
        "tle_line2": "2 33884  86.3696   4.5998 0008885 278.0535  99.9801 14.77652131890189"
      },
      "geometry": {
        "type": "Point",
        "coordinates": [
          -171.91910970774092,
          -46.0320399398822
        ]
      }
    }
  ]
}